[{"OBJECT_NAME":"FENGYUN 1C DEB","OBJECT_ID":"1999-025EM","EPOCH":"2026-03-10T01:19:37.688448","MEAN_MOTION":14.2875663,"ECCENTRICITY":0.01924759,"INCLINATION":99.0358,"RA_OF_ASC_NODE":275.5748,"ARG_OF_PERICENTER":37.9947,"MEAN_ANOMALY":113.5657,"EPHEMERIS_TYPE":0,"CLASSIFICATION_TYPE":"U","NORAD_CAT_ID":29843,"ELEMENT_SET_NO":999,"REV_AT_EPOCH":99528,"BSTAR":0.00032905378,"MEAN_MOTION_DOT":9.59e-6,"MEAN_MOTION_DDOT":0},{"OBJECT_NAME":"FENGYUN 1C DEB","OBJECT_ID":"1999-025EN","EPOCH":"2026-03-10T05:23:06.347328","MEAN_MOTION":14.3232555,"ECCENTRICITY":0.0166428,"INCLINATION":98.9326,"RA_OF_ASC_NODE":338.225,"ARG_OF_PERICENTER":272.0915,"MEAN_ANOMALY":86.1218,"EPHEMERIS_TYPE":0,"CLASSIFICATION_TYPE":"U","NORAD_CAT_ID":29844,"ELEMENT_SET_NO":999,"REV_AT_EPOCH":99593,"BSTAR":0.00058092524,"MEAN_MOTION_DOT":1.776e-5,"MEAN_MOTION_DDOT":0},{"OBJECT_NAME":"FENGYUN 1C DEB","OBJECT_ID":"1999-025EP","EPOCH":"2026-03-09T23:10:46.598304","MEAN_MOTION":14.26744844,"ECCENTRICITY":0.007579,"INCLINATION":98.5263,"RA_OF_ASC_NODE":72.0318,"ARG_OF_PERICENTER":235.7636,"MEAN_ANOMALY":187.9991,"EPHEMERIS_TYPE":0,"CLASSIFICATION_TYPE":"U","NORAD_CAT_ID":29845,"ELEMENT_SET_NO":999,"REV_AT_EPOCH":99353,"BSTAR":0.00041091,"MEAN_MOTION_DOT":9.82e-6,"MEAN_MOTION_DDOT":0},{"OBJECT_NAME":"FENGYUN 1C DEB","OBJECT_ID":"1999-025EQ","EPOCH":"2026-03-10T01:37:18.128352","MEAN_MOTION":14.19154196,"ECCENTRICITY":0.00855413,"INCLINATION":98.6411,"RA_OF_ASC_NODE":113.8003,"ARG_OF_PERICENTER":52.8326,"MEAN_ANOMALY":10.3123,"EPHEMERIS_TYPE":0,"CLASSIFICATION_TYPE":"U","NORAD_CAT_ID":29846,"ELEMENT_SET_NO":999,"REV_AT_EPOCH":99098,"BSTAR":0.00014083536,"MEAN_MOTION_DOT":2.63e-6,"MEAN_MOTION_DDOT":0},{"OBJECT_NAME":"FENGYUN 1C DEB","OBJECT_ID":"1999-025ER","EPOCH":"2026-03-10T05:37:55.255584","MEAN_MOTION":14.03069321,"ECCENTRICITY":0.00851052,"INCLINATION":98.9089,"RA_OF_ASC_NODE":68.266,"ARG_OF_PERICENTER":154.2011,"MEAN_ANOMALY":270.3858,"EPHEMERIS_TYPE":0,"CLASSIFICATION_TYPE":"U","NORAD_CAT_ID":29847,"ELEMENT_SET_NO":999,"REV_AT_EPOCH":97962,"BSTAR":0.00026361918,"MEAN_MOTION_DOT":3.8e-6,"MEAN_MOTION_DDOT":0},{"OBJECT_NAME":"FENGYUN 1C DEB","OBJECT_ID":"1999-025ES","EPOCH":"2026-03-09T14:22:40.600128","MEAN_MOTION":14.21082797,"ECCENTRICITY":0.0117205,"INCLINATION":98.2452,"RA_OF_ASC_NODE":294.4675,"ARG_OF_PERICENTER":40.838,"MEAN_ANOMALY":13.8052,"EPHEMERIS_TYPE":0,"CLASSIFICATION_TYPE":"U","NORAD_CAT_ID":29848,"ELEMENT_SET_NO":999,"REV_AT_EPOCH":98351,"BSTAR":0.0012173,"MEAN_MOTION_DOT":2.794e-5,"MEAN_MOTION_DDOT":0},{"OBJECT_NAME":"FENGYUN 1C DEB","OBJECT_ID":"1999-025ET","EPOCH":"2026-03-10T05:59:07.601856","MEAN_MOTION":14.05234766,"ECCENTRICITY":0.0082975,"INCLINATION":99.0018,"RA_OF_ASC_NODE":158.0145,"ARG_OF_PERICENTER":160.021,"MEAN_ANOMALY":265.7165,"EPHEMERIS_TYPE":0,"CLASSIFICATION_TYPE":"U","NORAD_CAT_ID":29849,"ELEMENT_SET_NO":999,"REV_AT_EPOCH":97599,"BSTAR":0.0014663112,"MEAN_MOTION_DOT":2.401e-5,"MEAN_MOTION_DDOT":0},{"OBJECT_NAME":"FENGYUN 1C DEB","OBJECT_ID":"1999-025EU","EPOCH":"2026-03-10T05:42:21.714048","MEAN_MOTION":14.00193726,"ECCENTRICITY":0.01073034,"INCLINATION":98.1235,"RA_OF_ASC_NODE":351.1477,"ARG_OF_PERICENTER":40.8187,"MEAN_ANOMALY":112.9394,"EPHEMERIS_TYPE":0,"CLASSIFICATION_TYPE":"U","NORAD_CAT_ID":29850,"ELEMENT_SET_NO":999,"REV_AT_EPOCH":97244,"BSTAR":0.0019163752,"MEAN_MOTION_DOT":2.937e-5,"MEAN_MOTION_DDOT":0},{"OBJECT_NAME":"FENGYUN 1C DEB","OBJECT_ID":"1999-025EV","EPOCH":"2026-03-10T02:21:53.304768","MEAN_MOTION":13.83678036,"ECCENTRICITY":0.01420551,"INCLINATION":99.57,"RA_OF_ASC_NODE":116.6329,"ARG_OF_PERICENTER":357.4779,"MEAN_ANOMALY":29.7486,"EPHEMERIS_TYPE":0,"CLASSIFICATION_TYPE":"U","NORAD_CAT_ID":29851,"ELEMENT_SET_NO":999,"REV_AT_EPOCH":96575,"BSTAR":0.00034635253,"MEAN_MOTION_DOT":3.67e-6,"MEAN_MOTION_DDOT":0},{"OBJECT_NAME":"FENGYUN 1C DEB","OBJECT_ID":"1999-025EW","EPOCH":"2026-03-10T07:13:12.257184","MEAN_MOTION":14.07751634,"ECCENTRICITY":0.01327526,"INCLINATION":99.3693,"RA_OF_ASC_NODE":87.3138,"ARG_OF_PERICENTER":267.356,"MEAN_ANOMALY":158.2378,"EPHEMERIS_TYPE":0,"CLASSIFICATION_TYPE":"U","NORAD_CAT_ID":29852,"ELEMENT_SET_NO":999,"REV_AT_EPOCH":97216,"BSTAR":0.0018278777,"MEAN_MOTION_DOT":3.306e-5,"MEAN_MOTION_DDOT":0},{"OBJECT_NAME":"FENGYUN 1C DEB","OBJECT_ID":"1999-025EX","EPOCH":"2026-03-09T19:24:53.138304","MEAN_MOTION":13.94119361,"ECCENTRICITY":0.01573454,"INCLINATION":98.4585,"RA_OF_ASC_NODE":188.1195,"ARG_OF_PERICENTER":340.9403,"MEAN_ANOMALY":18.5913,"EPHEMERIS_TYPE":0,"CLASSIFICATION_TYPE":"U","NORAD_CAT_ID":29853,"ELEMENT_SET_NO":999,"REV_AT_EPOCH":96882,"BSTAR":0.00097307163,"MEAN_MOTION_DOT":1.389e-5,"MEAN_MOTION_DDOT":0},{"OBJECT_NAME":"FENGYUN 1C DEB","OBJECT_ID":"1999-025EY","EPOCH":"2026-03-09T22:45:44.626752","MEAN_MOTION":13.83432589,"ECCENTRICITY":0.0147218,"INCLINATION":98.9377,"RA_OF_ASC_NODE":230.7332,"ARG_OF_PERICENTER":175.3537,"MEAN_ANOMALY":337.1443,"EPHEMERIS_TYPE":0,"CLASSIFICATION_TYPE":"U","NORAD_CAT_ID":29854,"ELEMENT_SET_NO":999,"REV_AT_EPOCH":96549,"BSTAR":0.00048312,"MEAN_MOTION_DOT":5.37e-6,"MEAN_MOTION_DDOT":0},{"OBJECT_NAME":"FENGYUN 1C DEB","OBJECT_ID":"1999-025EZ","EPOCH":"2026-03-10T07:52:16.453344","MEAN_MOTION":14.02381219,"ECCENTRICITY":0.01779824,"INCLINATION":98.1857,"RA_OF_ASC_NODE":7.1469,"ARG_OF_PERICENTER":156.3975,"MEAN_ANOMALY":355.7956,"EPHEMERIS_TYPE":0,"CLASSIFICATION_TYPE":"U","NORAD_CAT_ID":29855,"ELEMENT_SET_NO":999,"REV_AT_EPOCH":96939,"BSTAR":0.0015507682,"MEAN_MOTION_DOT":2.701e-5,"MEAN_MOTION_DDOT":0},{"OBJECT_NAME":"FENGYUN 1C DEB","OBJECT_ID":"1999-025FA","EPOCH":"2026-03-10T06:15:39.572352","MEAN_MOTION":14.51945293,"ECCENTRICITY":0.0248339,"INCLINATION":98.681,"RA_OF_ASC_NODE":171.0063,"ARG_OF_PERICENTER":33.0763,"MEAN_ANOMALY":353.8885,"EPHEMERIS_TYPE":0,"CLASSIFICATION_TYPE":"U","NORAD_CAT_ID":29856,"ELEMENT_SET_NO":999,"REV_AT_EPOCH":97643,"BSTAR":0.0026479369,"MEAN_MOTION_DOT":0.00015988,"MEAN_MOTION_DDOT":0},{"OBJECT_NAME":"FENGYUN 1C DEB","OBJECT_ID":"1999-025FB","EPOCH":"2026-03-09T22:58:39.853344","MEAN_MOTION":13.8220976,"ECCENTRICITY":0.0193926,"INCLINATION":98.4254,"RA_OF_ASC_NODE":72.0839,"ARG_OF_PERICENTER":56.6066,"MEAN_ANOMALY":305.3479,"EPHEMERIS_TYPE":0,"CLASSIFICATION_TYPE":"U","NORAD_CAT_ID":29857,"ELEMENT_SET_NO":999,"REV_AT_EPOCH":95980,"BSTAR":0.0020311,"MEAN_MOTION_DOT":2.492e-5,"MEAN_MOTION_DDOT":0},{"OBJECT_NAME":"FENGYUN 1C DEB","OBJECT_ID":"1999-025FC","EPOCH":"2026-03-10T05:49:47.187264","MEAN_MOTION":13.78067066,"ECCENTRICITY":0.02009172,"INCLINATION":99.2081,"RA_OF_ASC_NODE":173.3219,"ARG_OF_PERICENTER":192.1019,"MEAN_ANOMALY":197.5145,"EPHEMERIS_TYPE":0,"CLASSIFICATION_TYPE":"U","NORAD_CAT_ID":29858,"ELEMENT_SET_NO":999,"REV_AT_EPOCH":95759,"BSTAR":0.0018951477,"MEAN_MOTION_DOT":2.17e-5,"MEAN_MOTION_DDOT":0},{"OBJECT_NAME":"FENGYUN 1C DEB","OBJECT_ID":"1999-025FD","EPOCH":"2026-03-09T11:12:41.012640","MEAN_MOTION":13.74467314,"ECCENTRICITY":0.02932206,"INCLINATION":98.3398,"RA_OF_ASC_NODE":257.3338,"ARG_OF_PERICENTER":338.3976,"MEAN_ANOMALY":20.5011,"EPHEMERIS_TYPE":0,"CLASSIFICATION_TYPE":"U","NORAD_CAT_ID":29859,"ELEMENT_SET_NO":999,"REV_AT_EPOCH":95171,"BSTAR":0.0015339301,"MEAN_MOTION_DOT":1.945e-5,"MEAN_MOTION_DDOT":0},{"OBJECT_NAME":"FENGYUN 1C DEB","OBJECT_ID":"1999-025FE","EPOCH":"2026-03-10T00:41:04.796736","MEAN_MOTION":13.78030477,"ECCENTRICITY":0.0223358,"INCLINATION":98.6077,"RA_OF_ASC_NODE":99.9338,"ARG_OF_PERICENTER":108.897,"MEAN_ANOMALY":312.5817,"EPHEMERIS_TYPE":0,"CLASSIFICATION_TYPE":"U","NORAD_CAT_ID":29860,"ELEMENT_SET_NO":999,"REV_AT_EPOCH":95341,"BSTAR":0.0023788862,"MEAN_MOTION_DOT":2.839e-5,"MEAN_MOTION_DDOT":0},{"OBJECT_NAME":"FENGYUN 1C DEB","OBJECT_ID":"1999-025FK","EPOCH":"2026-03-10T07:06:34.265952","MEAN_MOTION":14.84151545,"ECCENTRICITY":0.01115973,"INCLINATION":98.9206,"RA_OF_ASC_NODE":355.2185,"ARG_OF_PERICENTER":223.9617,"MEAN_ANOMALY":289.0536,"EPHEMERIS_TYPE":0,"CLASSIFICATION_TYPE":"U","NORAD_CAT_ID":29865,"ELEMENT_SET_NO":999,"REV_AT_EPOCH":2056,"BSTAR":0.00083439939,"MEAN_MOTION_DOT":7.72e-5,"MEAN_MOTION_DDOT":0},{"OBJECT_NAME":"FENGYUN 1C DEB","OBJECT_ID":"1999-025FL","EPOCH":"2026-03-10T00:19:34.523328","MEAN_MOTION":14.64766197,"ECCENTRICITY":0.01924424,"INCLINATION":98.0476,"RA_OF_ASC_NODE":57.785,"ARG_OF_PERICENTER":299.9633,"MEAN_ANOMALY":95.5809,"EPHEMERIS_TYPE":0,"CLASSIFICATION_TYPE":"U","NORAD_CAT_ID":29866,"ELEMENT_SET_NO":999,"REV_AT_EPOCH":1604,"BSTAR":0.00050844776,"MEAN_MOTION_DOT":3.499e-5,"MEAN_MOTION_DDOT":0},{"OBJECT_NAME":"FENGYUN 1C DEB","OBJECT_ID":"1999-025FN","EPOCH":"2026-03-10T06:21:18.478944","MEAN_MOTION":14.79886282,"ECCENTRICITY":0.01939173,"INCLINATION":97.9353,"RA_OF_ASC_NODE":119.0036,"ARG_OF_PERICENTER":80.2873,"MEAN_ANOMALY":344.9804,"EPHEMERIS_TYPE":0,"CLASSIFICATION_TYPE":"U","NORAD_CAT_ID":29868,"ELEMENT_SET_NO":999,"REV_AT_EPOCH":1589,"BSTAR":0.00079681391,"MEAN_MOTION_DOT":8.237e-5,"MEAN_MOTION_DDOT":0},{"OBJECT_NAME":"FENGYUN 1C DEB","OBJECT_ID":"1999-025FP","EPOCH":"2026-03-10T07:44:58.220448","MEAN_MOTION":14.37113274,"ECCENTRICITY":0.00877402,"INCLINATION":98.8802,"RA_OF_ASC_NODE":7.3594,"ARG_OF_PERICENTER":111.8201,"MEAN_ANOMALY":15.5461,"EPHEMERIS_TYPE":0,"CLASSIFICATION_TYPE":"U","NORAD_CAT_ID":29869,"ELEMENT_SET_NO":999,"REV_AT_EPOCH":73,"BSTAR":0.0003795609,"MEAN_MOTION_DOT":1.131e-5,"MEAN_MOTION_DDOT":0},{"OBJECT_NAME":"FENGYUN 1C DEB","OBJECT_ID":"1999-025FQ","EPOCH":"2026-03-10T03:58:14.055744","MEAN_MOTION":14.29023907,"ECCENTRICITY":0.01190108,"INCLINATION":98.4739,"RA_OF_ASC_NODE":42.573,"ARG_OF_PERICENTER":295.7501,"MEAN_ANOMALY":126.246,"EPHEMERIS_TYPE":0,"CLASSIFICATION_TYPE":"U","NORAD_CAT_ID":29870,"ELEMENT_SET_NO":999,"REV_AT_EPOCH":99842,"BSTAR":9.7154367e-5,"MEAN_MOTION_DOT":2.21e-6,"MEAN_MOTION_DDOT":0}]
